STARLINK-2755           
1 48479U 21040BD  25351.00123988  .00002954  00000+0  21714-3 0  9993
2 48479  53.0522 202.8201 0001326  83.1973 276.9167 15.06402585254026
STARLINK-2706           
1 48481U 21040BF  25351.32102411  .00005154  00000+0  36454-3 0  9991
2 48481  53.0531 211.6636 0001356  81.1749 278.9393 15.06412237253927
STARLINK-2525           
1 48482U 21040BG  25351.02242496  .00003052  00000+0  22365-3 0  9998
2 48482  53.0526 212.7245 0001559  88.7753 271.3414 15.06407865253880
STARLINK-2531           
1 48483U 21040BH  25351.01873973  .00001313  00000+0  10707-3 0  9993
2 48483  53.0541 212.7424 0001547  97.8598 262.2566 15.06396801253886
STARLINK-2500           
1 48485U 21040BK  25351.02610860  .00001453  00000+0  11643-3 0  9995
2 48485  53.0533 212.7095 0001498  97.2413 262.8746 15.06396251253883
STARLINK-2494           
1 48487U 21040BM  25350.90078799  .00002444  00000+0  18290-3 0  9998
2 48487  53.0529 213.2696 0001536  86.2070 273.9095 15.06407346253870
STARLINK-2063           
1 48553U 21041A   25351.14313559  .00001297  00000+0  10593-3 0  9999
2 48553  53.0551 142.1867 0001360  91.0625 269.0520 15.06396464252768
STARLINK-2139           
1 48554U 21041B   25350.71560305 -.00000153  00000+0  86231-5 0  9990
2 48554  53.0557 144.4104 0001389  90.8926 269.2222 15.06399546252693
STARLINK-2145           
1 48555U 21041C   25351.17907126  .00001086  00000+0  91761-4 0  9996
2 48555  53.0551 152.0226 0001302  91.3862 268.7276 15.06402180252623
STARLINK-2151           
1 48556U 21041D   25350.76993540  .00000001  00000+0  18947-4 0  9997
2 48556  53.0548 153.8616 0001353  84.4656 275.6487 15.06397382252563
STARLINK-2155           
1 48557U 21041E   25350.70819124  .00002462  00000+0  18406-3 0  9999
2 48557  53.0548 144.1335 0001332  90.7048 269.4094 15.06405707252697
STARLINK-2166           
1 48558U 21041F   25350.70451504  .00001768  00000+0  13756-3 0  9995
2 48558  53.0550 144.1534 0000828  84.5231 275.5852 15.06395968251838
STARLINK-2187           
1 48562U 21041K   25350.74875786  .00005361  00000+0  37849-3 0  9998
2 48562  53.0523 143.9571 0001325  83.9230 276.1910 15.06405264252706
STARLINK-2188           
1 48563U 21041L   25351.16524746  .00000153  00000+0  29158-4 0  9992
2 48563  53.0559 142.0822 0001337  94.2383 265.8759 15.06398356252767
STARLINK-2190           
1 48564U 21041M   25351.15787363  .00000563  00000+0  56655-4 0  9995
2 48564  53.0540 142.1190 0001361  85.8945 274.2200 15.06400813252761
STARLINK-2214           
1 48566U 21041P   25351.17538227  .00002031  00000+0  15519-3 0  9997
2 48566  53.0554 152.0120 0001417  92.3293 267.7858 15.06400098252628
