[{"OBJECT_NAME":"STARLINK-2755","OBJECT_ID":"2021-040BD","EPOCH":"2025-12-17T00:01:47.125632","MEAN_MOTION":15.06402585,"ECCENTRICITY":0.00013268,"INCLINATION":53.0522,"RA_OF_ASC_NODE":202.8201,"ARG_OF_PERICENTER":83.1973,"MEAN_ANOMALY":276.9167,"EPHEMERIS_TYPE":0,"CLASSIFICATION_TYPE":"U","NORAD_CAT_ID":48479,"ELEMENT_SET_NO":999,"REV_AT_EPOCH":25402,"BSTAR":0.00021713679,"MEAN_MOTION_DOT":2.954e-5,"MEAN_MOTION_DDOT":0},{"OBJECT_NAME":"STARLINK-2706","OBJECT_ID":"2021-040BF","EPOCH":"2025-12-17T07:42:16.483104","MEAN_MOTION":15.06412237,"ECCENTRICITY":0.0001356,"INCLINATION":53.0531,"RA_OF_ASC_NODE":211.6636,"ARG_OF_PERICENTER":81.1749,"MEAN_ANOMALY":278.9393,"EPHEMERIS_TYPE":0,"CLASSIFICATION_TYPE":"U","NORAD_CAT_ID":48481,"ELEMENT_SET_NO":999,"REV_AT_EPOCH":25392,"BSTAR":0.00036453728,"MEAN_MOTION_DOT":5.154e-5,"MEAN_MOTION_DDOT":0},{"OBJECT_NAME":"STARLINK-2525","OBJECT_ID":"2021-040BG","EPOCH":"2025-12-17T00:32:17.516544","MEAN_MOTION":15.06407865,"ECCENTRICITY":0.00015595,"INCLINATION":53.0526,"RA_OF_ASC_NODE":212.7245,"ARG_OF_PERICENTER":88.7753,"MEAN_ANOMALY":271.3414,"EPHEMERIS_TYPE":0,"CLASSIFICATION_TYPE":"U","NORAD_CAT_ID":48482,"ELEMENT_SET_NO":999,"REV_AT_EPOCH":25388,"BSTAR":0.00022365139,"MEAN_MOTION_DOT":3.052e-5,"MEAN_MOTION_DDOT":0},{"OBJECT_NAME":"STARLINK-2531","OBJECT_ID":"2021-040BH","EPOCH":"2025-12-17T00:26:59.112672","MEAN_MOTION":15.06396801,"ECCENTRICITY":0.00015473,"INCLINATION":53.0541,"RA_OF_ASC_NODE":212.7424,"ARG_OF_PERICENTER":97.8598,"MEAN_ANOMALY":262.2566,"EPHEMERIS_TYPE":0,"CLASSIFICATION_TYPE":"U","NORAD_CAT_ID":48483,"ELEMENT_SET_NO":999,"REV_AT_EPOCH":25388,"BSTAR":0.0001070678,"MEAN_MOTION_DOT":1.313e-5,"MEAN_MOTION_DDOT":0},{"OBJECT_NAME":"STARLINK-2500","OBJECT_ID":"2021-040BK","EPOCH":"2025-12-17T00:37:35.783040","MEAN_MOTION":15.06396251,"ECCENTRICITY":0.00014986,"INCLINATION":53.0533,"RA_OF_ASC_NODE":212.7095,"ARG_OF_PERICENTER":97.2413,"MEAN_ANOMALY":262.8746,"EPHEMERIS_TYPE":0,"CLASSIFICATION_TYPE":"U","NORAD_CAT_ID":48485,"ELEMENT_SET_NO":999,"REV_AT_EPOCH":25388,"BSTAR":0.00011643322,"MEAN_MOTION_DOT":1.453e-5,"MEAN_MOTION_DDOT":0},{"OBJECT_NAME":"STARLINK-2494","OBJECT_ID":"2021-040BM","EPOCH":"2025-12-16T21:37:08.082336","MEAN_MOTION":15.06407346,"ECCENTRICITY":0.00015366,"INCLINATION":53.0529,"RA_OF_ASC_NODE":213.2696,"ARG_OF_PERICENTER":86.207,"MEAN_ANOMALY":273.9095,"EPHEMERIS_TYPE":0,"CLASSIFICATION_TYPE":"U","NORAD_CAT_ID":48487,"ELEMENT_SET_NO":999,"REV_AT_EPOCH":25387,"BSTAR":0.00018290054,"MEAN_MOTION_DOT":2.444e-5,"MEAN_MOTION_DDOT":0},{"OBJECT_NAME":"STARLINK-2063","OBJECT_ID":"2021-041A","EPOCH":"2025-12-17T03:26:06.914976","MEAN_MOTION":15.06396464,"ECCENTRICITY":0.00013607,"INCLINATION":53.0551,"RA_OF_ASC_NODE":142.1867,"ARG_OF_PERICENTER":91.0625,"MEAN_ANOMALY":269.052,"EPHEMERIS_TYPE":0,"CLASSIFICATION_TYPE":"U","NORAD_CAT_ID":48553,"ELEMENT_SET_NO":999,"REV_AT_EPOCH":25276,"BSTAR":0.00010592582,"MEAN_MOTION_DOT":1.297e-5,"MEAN_MOTION_DDOT":0},{"OBJECT_NAME":"STARLINK-2139","OBJECT_ID":"2021-041B","EPOCH":"2025-12-16T17:10:28.103520","MEAN_MOTION":15.06399546,"ECCENTRICITY":0.00013899,"INCLINATION":53.0557,"RA_OF_ASC_NODE":144.4104,"ARG_OF_PERICENTER":90.8926,"MEAN_ANOMALY":269.2222,"EPHEMERIS_TYPE":0,"CLASSIFICATION_TYPE":"U","NORAD_CAT_ID":48554,"ELEMENT_SET_NO":999,"REV_AT_EPOCH":25269,"BSTAR":8.623125e-6,"MEAN_MOTION_DOT":-1.53e-6,"MEAN_MOTION_DDOT":0},{"OBJECT_NAME":"STARLINK-2145","OBJECT_ID":"2021-041C","EPOCH":"2025-12-17T04:17:51.756864","MEAN_MOTION":15.0640218,"ECCENTRICITY":0.0001302,"INCLINATION":53.0551,"RA_OF_ASC_NODE":152.0226,"ARG_OF_PERICENTER":91.3862,"MEAN_ANOMALY":268.7276,"EPHEMERIS_TYPE":0,"CLASSIFICATION_TYPE":"U","NORAD_CAT_ID":48555,"ELEMENT_SET_NO":999,"REV_AT_EPOCH":25262,"BSTAR":9.1761169e-5,"MEAN_MOTION_DOT":1.086e-5,"MEAN_MOTION_DDOT":0},{"OBJECT_NAME":"STARLINK-2151","OBJECT_ID":"2021-041D","EPOCH":"2025-12-16T18:28:42.418560","MEAN_MOTION":15.06397382,"ECCENTRICITY":0.00013537,"INCLINATION":53.0548,"RA_OF_ASC_NODE":153.8616,"ARG_OF_PERICENTER":84.4656,"MEAN_ANOMALY":275.6487,"EPHEMERIS_TYPE":0,"CLASSIFICATION_TYPE":"U","NORAD_CAT_ID":48556,"ELEMENT_SET_NO":999,"REV_AT_EPOCH":25256,"BSTAR":1.894719e-5,"MEAN_MOTION_DOT":1.0e-8,"MEAN_MOTION_DDOT":0},{"OBJECT_NAME":"STARLINK-2155","OBJECT_ID":"2021-041E","EPOCH":"2025-12-16T16:59:47.723136","MEAN_MOTION":15.06405707,"ECCENTRICITY":0.00013326,"INCLINATION":53.0548,"RA_OF_ASC_NODE":144.1335,"ARG_OF_PERICENTER":90.7048,"MEAN_ANOMALY":269.4094,"EPHEMERIS_TYPE":0,"CLASSIFICATION_TYPE":"U","NORAD_CAT_ID":48557,"ELEMENT_SET_NO":999,"REV_AT_EPOCH":25269,"BSTAR":0.00018406062,"MEAN_MOTION_DOT":2.462e-5,"MEAN_MOTION_DDOT":0},{"OBJECT_NAME":"STARLINK-2166","OBJECT_ID":"2021-041F","EPOCH":"2025-12-16T16:54:30.099456","MEAN_MOTION":15.06395968,"ECCENTRICITY":8.288e-5,"INCLINATION":53.055,"RA_OF_ASC_NODE":144.1534,"ARG_OF_PERICENTER":84.5231,"MEAN_ANOMALY":275.5852,"EPHEMERIS_TYPE":0,"CLASSIFICATION_TYPE":"U","NORAD_CAT_ID":48558,"ELEMENT_SET_NO":999,"REV_AT_EPOCH":25183,"BSTAR":0.00013755924,"MEAN_MOTION_DOT":1.768e-5,"MEAN_MOTION_DDOT":0},{"OBJECT_NAME":"STARLINK-2187","OBJECT_ID":"2021-041K","EPOCH":"2025-12-16T17:58:12.679104","MEAN_MOTION":15.06405264,"ECCENTRICITY":0.00013256,"INCLINATION":53.0523,"RA_OF_ASC_NODE":143.9571,"ARG_OF_PERICENTER":83.923,"MEAN_ANOMALY":276.191,"EPHEMERIS_TYPE":0,"CLASSIFICATION_TYPE":"U","NORAD_CAT_ID":48562,"ELEMENT_SET_NO":999,"REV_AT_EPOCH":25270,"BSTAR":0.00037848759,"MEAN_MOTION_DOT":5.361e-5,"MEAN_MOTION_DDOT":0},{"OBJECT_NAME":"STARLINK-2188","OBJECT_ID":"2021-041L","EPOCH":"2025-12-17T03:57:57.380544","MEAN_MOTION":15.06398356,"ECCENTRICITY":0.00013371,"INCLINATION":53.0559,"RA_OF_ASC_NODE":142.0822,"ARG_OF_PERICENTER":94.2383,"MEAN_ANOMALY":265.8759,"EPHEMERIS_TYPE":0,"CLASSIFICATION_TYPE":"U","NORAD_CAT_ID":48563,"ELEMENT_SET_NO":999,"REV_AT_EPOCH":25276,"BSTAR":2.9157709e-5,"MEAN_MOTION_DOT":1.53e-6,"MEAN_MOTION_DDOT":0},{"OBJECT_NAME":"STARLINK-2190","OBJECT_ID":"2021-041M","EPOCH":"2025-12-17T03:47:20.281632","MEAN_MOTION":15.06400813,"ECCENTRICITY":0.00013616,"INCLINATION":53.054,"RA_OF_ASC_NODE":142.119,"ARG_OF_PERICENTER":85.8945,"MEAN_ANOMALY":274.22,"EPHEMERIS_TYPE":0,"CLASSIFICATION_TYPE":"U","NORAD_CAT_ID":48564,"ELEMENT_SET_NO":999,"REV_AT_EPOCH":25276,"BSTAR":5.6654681e-5,"MEAN_MOTION_DOT":5.63e-6,"MEAN_MOTION_DDOT":0},{"OBJECT_NAME":"STARLINK-2214","OBJECT_ID":"2021-041P","EPOCH":"2025-12-17T04:12:33.028128","MEAN_MOTION":15.06400098,"ECCENTRICITY":0.00014179,"INCLINATION":53.0554,"RA_OF_ASC_NODE":152.012,"ARG_OF_PERICENTER":92.3293,"MEAN_ANOMALY":267.7858,"EPHEMERIS_TYPE":0,"CLASSIFICATION_TYPE":"U","NORAD_CAT_ID":48566,"ELEMENT_SET_NO":999,"REV_AT_EPOCH":25262,"BSTAR":0.00015518868,"MEAN_MOTION_DOT":2.031e-5,"MEAN_MOTION_DDOT":0}]
